C/2018 P5 (PANSTARRS),e,7.2476,216.2055,131.9242,12.83914,0.0214240,0.64292611,27.9147,09/23.0/2022,2000,g 11.0,4.0
# From MPC118841
C/2018 R3 (Lemmon),e,69.7204,324.6123,112.7509,1558,0.0000160,0.99917550,0.0000,06/07.6513/2019,2000,g  9.5,4.0
# From MPEC 2022-M21
C/2018 R4 (Fuls),e,11.6724,298.5138,345.3268,348.0009,0.0001518,0.99505197,0.0000,03/02.8745/2018,2000,g 14.0,4.0
# From MPC114603
C/2018 R5 (Lemmon),e,103.7496,171.1139,178.1720,22.87117,0.0090110,0.84126737,12.1808,09/23.0/2022,2000,g 11.5,4.0
# From MPEC 2022-QC6
C/2018 S2 (TESS),e,64.1644,85.1058,290.7871,14.35655,0.0181188,0.61878430,25.6637,09/23.0/2022,2000,g  7.5,4.0
# From MPEC 2022-QD9
C/2018 U1 (Lemmon),h,11/03.1775/2021,108.3109,75.4855,180.4774,1.001530,4.993032,2000,5.0,4.0
# From MPC114604
C/2018 V1 (Machholz-Fujikawa-Iwamoto),h,12/02.8433/2018,144.0829,129.0034,89.0369,1.000344,0.389606,2000,12.0,4.0
# From MPC115884
C/2018 V2 (ATLAS),e,159.1675,357.0761,318.9898,25.04826,0.0078621,0.90087381,10.9872,09/23.0/2022,2000,g 15.0,4.0
# From MPC114604
P/2018 VN2 (Leonard),e,18.2616,226.4598,138.8317,4.064002,0.1203021,0.47891941,188.7469,09/23.0/2022,2000,g 15.0,4.0
# From MPEC 2021-P47
A/2018 V3,e,164.9692,308.6855,3.5971,126.7081,0.0006910,0.98941453,0.0000,09/09.0246/2019,2000,g 15.7,2.0
# From MPEC 2022-M21
C/2018 V4 (Africano),e,69.0173,78.2998,359.9341,200.4513,0.0003473,0.98406182,0.0000,03/01.4564/2019,2000,g 12.5,4.0
# From MPEC 2021-P47
P/2018 V5 (Trujillo-Sheppard),e,10.5891,171.2867,260.6563,8.958496,0.0367580,0.47536911,53.3212,09/23.0/2022,2000,g 12.5,4.0
# From MPEC 2021-P47
C/2018 W1 (Catalina),e,83.3551,233.6453,251.2198,21.67876,0.0097646,0.93728742,12.0126,09/23.0/2022,2000,g 15.5,2.0
# From MPEC 2021-P47
C/2018 W2 (Africano),h,09/05.3739/2019,116.6266,181.8158,158.0436,1.000512,1.459482,2000,9.5,4.0
# From MPEC 2022-Q17
A/2018 W3,e,104.8104,251.6685,313.9659,684.7631,0.0000550,0.99373417,0.0000,04/13.0432/2021,2000,g 10.5,2.0
# From MPC119996
C/2018 X2 (Fitzsimmons),e,23.0704,340.8221,161.9672,140.5032,0.0005918,0.98489284,0.0000,07/08.1984/2019,2000,g 12.0,4.0
# From MPC114604
C/2018 X3 (PANSTARRS),e,43.3987,78.8442,359.7361,12.37112,0.0226512,0.78240668,30.8524,09/23.0/2022,2000,g 14.5,4.0
# From MPC118842
C/2018 Y1 (Iwamoto),e,160.4043,147.5000,357.9375,132.2702,0.0006479,0.99029604,0.0000,02/06.2603/2019,2000,g 11.5,4.0
# From MPC114605
P/2018 Y2 (Africano),e,11.6832,297.2248,162.2459,7.454070,0.0484299,0.47901864,65.8849,09/23.0/2022,2000,g 11.5,4.0
# From MPC114605
P/2019 A1 (PANSTARRS),e,13.7482,312.2779,150.7113,5.117466,0.0851376,0.56886256,122.8713,09/23.0/2022,2000,g 16.0,4.0
# From MPEC 2021-P47
P/2019 A2 (ATLAS),e,14.8602,139.4582,323.8744,5.715406,0.0721329,0.38186740,101.1845,09/23.0/2022,2000,g 10.5,4.0
# From MPEC 2022-M21
P/2019 A3 (PANSTARRS),e,15.3747,31.2929,325.6154,3.144954,0.1767188,0.26607309,266.9761,09/23.0/2022,2000,g 16.0,4.0
# From MPEC 2022-L66
P/2019 A4 (PANSTARRS),e,13.3062,119.2442,342.9331,2.613538,0.2332710,0.08709622,322.4404,09/23.0/2022,2000,g 15.0,4.0
# From MPEC 2021-P47
C/2019 A5 (PANSTARRS),e,67.5555,146.6185,355.8357,21.50402,0.0098838,0.70625198,11.9002,09/23.0/2022,2000,g  9.5,4.0
# From MPC114605
P/2019 A6 (Lemmon-PANSTARRS),e,33.2543,280.2162,156.1797,5.358348,0.0794617,0.63967169,118.0214,09/23.0/2022,2000,g 16.0,4.0
# From MPC115884
P/2019 A8 (PANSTARRS),e,2.1971,114.7940,65.8573,4.258691,0.1121476,0.24723302,169.5606,09/23.0/2022,2000,g 16.0,4.0
# From MPC118842
C/2019 A9 (PANSTARRS),e,84.2169,278.3959,237.9274,39.17509,0.0040197,0.96347218,4.6427,09/23.0/2022,2000,g 15.0,4.0
# From MPEC 2022-L66
C/2019 B1 (Africano),e,123.3890,290.3980,174.7811,139.1160,0.0006007,0.98852072,0.0000,03/18.9658/2019,2000,g 16.0,4.0
# From MPC115885
P/2019 B2 (Groeller),e,17.0261,175.7428,1.0602,3.907385,0.1276071,0.36299122,154.2241,09/23.0/2022,2000,g 14.5,4.0
# From MPEC 2022-S20
C/2019 B3 (PANSTARRS),h,01/20.4399/2021,66.5354,358.4368,263.9563,1.000663,6.824444,2000,5.5,4.0
# From MPEC 2021-P47
C/2019 C1 (ATLAS),e,36.0468,212.3889,319.1113,656.0358,0.0000587,0.98997269,0.0000,05/04.6146/2020,2000,g 10.0,4.0
# From MPEC 2022-O08
C/2019 D1 (Flewelling),e,34.0256,231.6771,70.6438,143.0636,0.0005760,0.98893024,0.0000,05/11.5252/2019,2000,g 13.0,4.0
# From MPEC 2022-N37
C/2019 E3 (ATLAS),h,11/14.4806/2023,84.2975,347.2530,280.6685,1.000772,10.313344,2000,2.5,4.0
# From MPEC 2022-S20
C/2019 F1 (ATLAS-Africano),h,06/23.0850/2021,54.1915,38.6934,251.2127,1.003673,3.597557,2000,5.5,4.0
# From MPEC 2021-P47
C/2019 F2 (ATLAS),e,19.2448,175.5190,11.5700,16.64831,0.0145094,0.86512791,16.1161,09/23.0/2022,2000,g 12.0,4.0
# From MPEC 2021-P47
A/2019 G2,e,159.2115,208.1569,82.6118,482.7057,0.0000929,0.99525036,0.0000,12/09.1145/2019,2000,g 16.5,2.0
# From MPEC 2021-F20
A/2019 G3,e,156.8104,49.8717,161.9372,17.21519,0.0137986,0.83436252,19.1629,09/23.0/2022,2000,g 17.1,2.0
# From MPEC 2022-P82
C/2019 G4 (PANSTARRS),h,09/16.0078/2018,138.3679,130.4593,287.8118,1.001977,5.851926,2000,9.5,4.0
# From MPC114607
P/2019 GG21 (PANSTARRS),e,6.0850,340.5640,208.6093,7.470954,0.0482658,0.47201632,59.4442,09/23.0/2022,2000,g 12.0,4.0
# From MPEC 2022-M21
C/2019 H1 (NEOWISE),e,104.4964,269.2487,19.3509,249.5570,0.0002500,0.99260343,0.0000,04/27.9855/2019,2000,g 15.5,4.0
# From MPEC 2022-O08
C/2019 J1 (Lemmon),e,24.5454,98.1337,167.7785,68.56816,0.0017359,0.96377560,2.1936,09/23.0/2022,2000,g 12.0,4.0
# From MPEC 2021-R75
C/2019 J2 (Palomar),e,105.2269,25.5519,98.7181,161.4298,0.0004805,0.98932029,0.0000,07/20.0687/2019,2000,g 13.0,4.0
# From MPC117071
C/2019 J3 (ATLAS),h,08/02.3015/2019,131.3752,270.5795,16.6217,1.000689,2.373092,2000,13.5,4.0
# From MPEC 2022-M21
C/2019 JU6 (ATLAS),e,148.3280,21.7592,95.0127,44206,0.0000001,0.99995371,0.0000,06/01.5504/2019,2000,g 14.5,4.0
# From MPEC 2022-O08
C/2019 K1 (ATLAS),e,87.0810,73.3548,265.7171,40017,0.0000001,0.99994970,0.0000,02/12.9089/2020,2000,g 10.0,4.0
# From MPC119997
C/2019 K4 (Ye),e,105.2965,180.1402,139.8345,1327,0.0000204,0.99829291,0.0000,06/15.8242/2019,2000,g 12.5,4.0
# From MPEC 2021-P47
C/2019 K5 (Young),e,15.3194,177.1261,175.0982,166.1200,0.0004603,0.98772336,0.0000,06/23.0760/2019,2000,g 13.0,4.0
# From MPEC 2021-P47
C/2019 K6 (PANSTARRS),e,132.3832,42.9831,187.6201,1796,0.0000130,0.99781352,0.0000,05/20.1775/2020,2000,g 11.5,4.0
# From MPEC 2022-R68
C/2019 K7 (Smith),h,06/17.4830/2020,103.5394,307.9472,27.3854,1.000702,4.477784,2000,6.0,4.0
# From MPEC 2021-R75
C/2019 K8 (ATLAS),e,93.1727,291.0398,85.3870,2730,0.0000069,0.99883024,0.0000,07/21.7666/2019,2000,g 11.5,4.0
# From MPC118095
C/2019 L1 (PANSTARRS),e,9.9838,254.4287,50.0372,9.842762,0.0319175,0.70568649,36.3509,09/23.0/2022,2000,g 13.5,4.0
# From MPC115886
C/2019 L2 (NEOWISE),e,152.2096,12.5493,18.8163,24.96826,0.0078999,0.93491284,10.0350,09/23.0/2022,2000,g 16.0,4.0
# From MPEC 2022-S20
P/2019 LD2 (ATLAS),e,11.6227,179.5970,121.0998,5.233198,0.0823291,0.12714363,75.7652,09/23.0/2022,2000,g  8.5,4.0
# From MPEC 2022-RD9
C/2019 L3 (ATLAS),h,01/09.6236/2022,48.3552,290.7867,171.6112,1.001856,3.554419,2000,4.5,4.0
# From MPC118095
C/2019 LB7 (Kleyna),e,164.2918,3.8848,336.5211,34.59206,0.0048444,0.92806812,6.1847,09/23.0/2022,2000,g 17.0,4.0
# From MPEC 2022-O08
P/2019 M2 (ATLAS),e,12.2753,307.6128,332.5692,3.028260,0.1870313,0.64764494,222.3384,09/23.0/2022,2000,g 21.2,4.0
# From MPC118095
C/2019 M3 (ATLAS),e,99.4929,154.9150,87.8843,16200,0.0000005,0.99985059,0.0000,01/01.3940/2019,2000,g 12.2,4.0
# From MPEC 2022-R68
C/2019 N1 (ATLAS),e,82.4293,13.5739,193.4369,2310,0.0000089,0.99926190,0.0000,12/01.5788/2020,2000,g  7.5,4.0
# From MPEC 2022-A21
C/2019 NJ3 (Lemmon),h,10/22.7936/2020,99.4315,142.4618,246.9005,1.002180,4.362668,2000,9.0,4.0
# From MPEC 2022-QD9
A/2019 O2,e,93.3015,48.2712,129.6549,57.64523,0.0022520,0.83202917,359.5573,09/23.0/2022,2000,g  9.5,2.0
# From MPEC 2022-S20
C/2019 O3 (Palomar),h,03/09.3126/2021,89.8198,300.4035,60.1155,1.004113,8.820487,2000,3.5,4.0
# From MPEC 2021-P47
A/2019 O4,e,115.0963,354.9077,61.8930,33.18848,0.0051549,0.89012893,4.9251,09/23.0/2022,2000,g 15.5,2.0
# From MPEC 2021-N06
C/2019 Q1 (Lemmon),h,07/20.4080/2020,155.7267,42.4672,56.1635,1.000285,5.001000,2000,8.5,4.0
# From MPC117072
A/2019 Q2,e,159.0316,188.0052,176.3527,57.54037,0.0022581,0.97807955,0.0000,07/22.0239/2019,2000,g 18.0,2.0
# From MPC117072
C/2019 Q3 (PANSTARRS),h,08/21.5258/2018,65.5306,151.3283,152.7760,1.002912,7.262961,2000,8.5,4.0
# From MPC117072
P/2019 S2 (PANSTARRS),e,10.4682,93.1404,217.1198,4.741203,0.0954709,0.20611387,124.9326,09/23.0/2022,2000,g 13.5,4.0
# From MPEC 2022-CN4
P/2019 S3 (PANSTARRS),e,8.6943,150.1588,213.0278,3.415373,0.1561517,0.47123029,175.3770,09/23.0/2022,2000,g 18.3,4.0
# From MPEC 2021-S45
C/2019 S4 (Lemmon),e,92.0611,63.1507,71.3715,231.4338,0.0002799,0.98512505,0.0000,04/07.9310/2020,2000,g 11.0,4.0
# From MPEC 2022-L66
A/2019 T1,e,120.8771,6.9447,91.0713,38.61911,0.0041068,0.88912120,2.5311,09/23.0/2022,2000,g 13.0,2.0
# From MPEC 2022-L66
C/2019 T2 (Lemmon),e,111.4854,155.6455,239.4233,3059,0.0000058,0.99913487,0.0000,04/22.4332/2021,2000,g  9.0,4.0
# From MPEC 2022-S20
C/2019 T3 (ATLAS),e,121.8479,139.5311,112.4165,3143,0.0000056,0.99810689,0.0000,03/03.9727/2021,2000,g  6.8,4.0
# From MPEC 2022-R68
C/2019 T4 (ATLAS),e,53.6308,199.9388,351.1915,990.2566,0.0000316,0.99571590,0.0000,06/09.0759/2022,2000,g  5.0,4.0
# From MPEC 2021-P47
P/2019 T5 (ATLAS),e,33.4695,247.6385,189.5613,7.995906,0.0435916,0.80935713,50.0657,09/23.0/2022,2000,g 15.0,4.0
# From MPEC 2021-P47
P/2019 T6 (PANSTARRS),e,18.6984,71.2438,328.9591,5.436436,0.0777558,0.62297684,81.6217,09/23.0/2022,2000,g 15.5,4.0
# From MPC118096
P/2019 U4 (PANSTARRS),e,11.6995,200.0008,181.0078,3.520335,0.1492204,0.47595407,164.1235,09/23.0/2022,2000,g 19.0,4.0
# From MPEC 2022-S20
C/2019 U5 (PANSTARRS),h,03/29.9065/2023,113.5213,2.6371,181.5090,1.001451,3.624049,2000,4.5,4.0
# From MPEC 2022-H04
